STARLINK-6063
1 56811U 23078AW  26090.81413340  .00046069  00000+0  55942-3 0  9994
2 56811  69.9994 234.4538 0003627 272.3669  87.7106 15.60352811157331
